{"type": "FeatureCollection", "features": [{"type": "Feature", "properties": {"norad_id": 26766, "name": "INTELSAT 10 (IS-10)", "group": "intelsat", "lat": 5.365189747639724, "lon": 99.33279994141715, "alt_km": 36156.62932177657, "timestamp": "2025-12-06T14:35:36.794770+00:00", "meta": {"OBJECT_NAME": "INTELSAT 10 (IS-10)", "OBJECT_ID": "2001-019A", "EPOCH": "2025-12-05T12:47:33.691776", "MEAN_MOTION": 0.99078635, "ECCENTRICITY": 0.00078343, "INCLINATION": 8.6118, "RA_OF_ASC_NODE": 61.2275, "ARG_OF_PERICENTER": 219.6027, "MEAN_ANOMALY": 155.367, "EPHEMERIS_TYPE": 0, "CLASSIFICATION_TYPE": "U", "NORAD_CAT_ID": 26766, "ELEMENT_SET_NO": 999, "REV_AT_EPOCH": 4366, "BSTAR": 0, "MEAN_MOTION_DOT": -2.14e-06, "MEAN_MOTION_DDOT": 0}, "tle": {"line1": "1 26766U 01019A   25339.53302884 -.00000214  00000+0  00000+0 0  9999", "line2": "2 26766   8.6118  61.2275 0007834 219.6027 155.3670  0.99078635 43668"}}, "geometry": {"type": "Point", "coordinates": [99.33279994141715, 5.365189747639724]}}, {"type": "Feature", "properties": {"norad_id": 26900, "name": "INTELSAT 902 (IS-902)", "group": "intelsat", "lat": 0.9272580045341433, "lon": -115.56647725077414, "alt_km": 35768.71861414984, "timestamp": "2025-12-06T14:35:36.794794+00:00", "meta": {"OBJECT_NAME": "INTELSAT 902 (IS-902)", "OBJECT_ID": "2001-039A", "EPOCH": "2025-12-01T16:59:59.311968", "MEAN_MOTION": 1.00270327, "ECCENTRICITY": 0.00043097, "INCLINATION": 5.6187, "RA_OF_ASC_NODE": 74.2002, "ARG_OF_PERICENTER": 175.119, "MEAN_ANOMALY": 26.3816, "EPHEMERIS_TYPE": 0, "CLASSIFICATION_TYPE": "U", "NORAD_CAT_ID": 26900, "ELEMENT_SET_NO": 999, "REV_AT_EPOCH": 8871, "BSTAR": 0, "MEAN_MOTION_DOT": -2.63e-06, "MEAN_MOTION_DDOT": 0}, "tle": {"line1": "1 26900U 01039A   25335.70832537 -.00000263  00000+0  00000+0 0  9993", "line2": "2 26900   5.6187  74.2002 0004309 175.1190  26.3816  1.00270327 88713"}}, "geometry": {"type": "Point", "coordinates": [-115.56647725077414, 0.9272580045341433]}}, {"type": "Feature", "properties": {"norad_id": 27380, "name": "INTELSAT 904 (IS-904)", "group": "intelsat", "lat": -1.3085233208780085, "lon": -97.04987914364987, "alt_km": 35780.14767250881, "timestamp": "2025-12-06T14:35:36.794810+00:00", "meta": {"OBJECT_NAME": "INTELSAT 904 (IS-904)", "OBJECT_ID": "2002-007A", "EPOCH": "2025-12-06T03:14:31.415712", "MEAN_MOTION": 1.00268775, "ECCENTRICITY": 0.00017374, "INCLINATION": 6.4378, "RA_OF_ASC_NODE": 71.5073, "ARG_OF_PERICENTER": 209.4641, "MEAN_ANOMALY": 171.3234, "EPHEMERIS_TYPE": 0, "CLASSIFICATION_TYPE": "U", "NORAD_CAT_ID": 27380, "ELEMENT_SET_NO": 999, "REV_AT_EPOCH": 4983, "BSTAR": 0, "MEAN_MOTION_DOT": -2.21e-06, "MEAN_MOTION_DDOT": 0}, "tle": {"line1": "1 27380U 02007A   25340.13508583 -.00000221  00000+0  00000+0 0  9990", "line2": "2 27380   6.4378  71.5073 0001737 209.4641 171.3234  1.00268775 49838"}}, "geometry": {"type": "Point", "coordinates": [-97.04987914364987, -1.3085233208780085]}}, {"type": "Feature", "properties": {"norad_id": 27426, "name": "DIRECTV 5 (TEMPO 1)", "group": "intelsat", "lat": 4.192650281010968, "lon": -175.57554490330423, "alt_km": 35785.04723189933, "timestamp": "2025-12-06T14:35:36.794824+00:00", "meta": {"OBJECT_NAME": "DIRECTV 5 (TEMPO 1)", "OBJECT_ID": "2002-023A", "EPOCH": "2025-12-06T07:44:29.684256", "MEAN_MOTION": 1.00271488, "ECCENTRICITY": 0.00039116, "INCLINATION": 4.3851, "RA_OF_ASC_NODE": 77.7272, "ARG_OF_PERICENTER": 194.8447, "MEAN_ANOMALY": 168.7939, "EPHEMERIS_TYPE": 0, "CLASSIFICATION_TYPE": "U", "NORAD_CAT_ID": 27426, "ELEMENT_SET_NO": 999, "REV_AT_EPOCH": 8619, "BSTAR": 0, "MEAN_MOTION_DOT": -5.2e-07, "MEAN_MOTION_DDOT": 0}, "tle": {"line1": "1 27426U 02023A   25340.32256579 -.00000052  00000+0  00000+0 0  9997", "line2": "2 27426   4.3851  77.7272 0003911 194.8447 168.7939  1.00271488 86195"}}, "geometry": {"type": "Point", "coordinates": [-175.57554490330423, 4.192650281010968]}}, {"type": "Feature", "properties": {"norad_id": 27438, "name": "INTELSAT 905 (IS-905)", "group": "intelsat", "lat": 6.2516689699571595, "lon": 157.32693458338804, "alt_km": 35787.71396288276, "timestamp": "2025-12-06T14:35:36.794836+00:00", "meta": {"OBJECT_NAME": "INTELSAT 905 (IS-905)", "OBJECT_ID": "2002-027A", "EPOCH": "2025-12-03T09:40:44.149728", "MEAN_MOTION": 1.00273288, "ECCENTRICITY": 0.00031296, "INCLINATION": 6.2606, "RA_OF_ASC_NODE": 72.1621, "ARG_OF_PERICENTER": 189.1417, "MEAN_ANOMALY": 179.1858, "EPHEMERIS_TYPE": 0, "CLASSIFICATION_TYPE": "U", "NORAD_CAT_ID": 27438, "ELEMENT_SET_NO": 999, "REV_AT_EPOCH": 4940, "BSTAR": 0, "MEAN_MOTION_DOT": 1.09e-06, "MEAN_MOTION_DDOT": 0}, "tle": {"line1": "1 27438U 02027A   25337.40328877  .00000109  00000+0  00000+0 0  9992", "line2": "2 27438   6.2606  72.1621 0003129 189.1417 179.1858  1.00273288 49408"}}, "geometry": {"type": "Point", "coordinates": [157.32693458338804, 6.2516689699571595]}}, {"type": "Feature", "properties": {"norad_id": 27445, "name": "GALAXY 3C (G-3C)", "group": "intelsat", "lat": 2.8214147821442612, "lon": -160.27590940235638, "alt_km": 35781.171564427306, "timestamp": "2025-12-06T14:35:36.794849+00:00", "meta": {"OBJECT_NAME": "GALAXY 3C (G-3C)", "OBJECT_ID": "2002-030A", "EPOCH": "2025-12-06T06:22:01.519104", "MEAN_MOTION": 1.00270551, "ECCENTRICITY": 0.0001218, "INCLINATION": 3.2475, "RA_OF_ASC_NODE": 80.5704, "ARG_OF_PERICENTER": 102.547, "MEAN_ANOMALY": 252.8356, "EPHEMERIS_TYPE": 0, "CLASSIFICATION_TYPE": "U", "NORAD_CAT_ID": 27445, "ELEMENT_SET_NO": 999, "REV_AT_EPOCH": 4455, "BSTAR": 0, "MEAN_MOTION_DOT": -1.46e-06, "MEAN_MOTION_DDOT": 0}, "tle": {"line1": "1 27445U 02030A   25340.26529536 -.00000146  00000+0  00000+0 0  9999", "line2": "2 27445   3.2475  80.5704 0001218 102.5470 252.8356  1.00270551 44550"}}, "geometry": {"type": "Point", "coordinates": [-160.27590940235638, 2.8214147821442612]}}, {"type": "Feature", "properties": {"norad_id": 27513, "name": "INTELSAT 906 (IS-906)", "group": "intelsat", "lat": -5.161696887476564, "lon": -1.1895285515473661, "alt_km": 35789.76643274841, "timestamp": "2025-12-06T14:35:36.794861+00:00", "meta": {"OBJECT_NAME": "INTELSAT 906 (IS-906)", "OBJECT_ID": "2002-041A", "EPOCH": "2025-12-06T05:24:37.018944", "MEAN_MOTION": 1.00270357, "ECCENTRICITY": 0.00060447, "INCLINATION": 5.3123, "RA_OF_ASC_NODE": 75.3091, "ARG_OF_PERICENTER": 187.5857, "MEAN_ANOMALY": 317.6689, "EPHEMERIS_TYPE": 0, "CLASSIFICATION_TYPE": "U", "NORAD_CAT_ID": 27513, "ELEMENT_SET_NO": 999, "REV_AT_EPOCH": 8509, "BSTAR": 0, "MEAN_MOTION_DOT": 1.8e-07, "MEAN_MOTION_DDOT": 0}, "tle": {"line1": "1 27513U 02041A   25340.22542846  .00000018  00000+0  00000+0 0  9999", "line2": "2 27513   5.3123  75.3091 0006044 187.5857 317.6689  1.00270357 85091"}}, "geometry": {"type": "Point", "coordinates": [-1.1895285515473661, -5.161696887476564]}}, {"type": "Feature", "properties": {"norad_id": 27954, "name": "GALAXY 13 (HORIZONS-1)", "group": "intelsat", "lat": 0.7851166417506936, "lon": 144.5328840261073, "alt_km": 35788.06170069384, "timestamp": "2025-12-06T14:35:36.794873+00:00", "meta": {"OBJECT_NAME": "GALAXY 13 (HORIZONS-1)", "OBJECT_ID": "2003-044A", "EPOCH": "2025-12-06T07:41:21.361632", "MEAN_MOTION": 1.00273824, "ECCENTRICITY": 0.00020659, "INCLINATION": 0.9189, "RA_OF_ASC_NODE": 86.554, "ARG_OF_PERICENTER": 165.8205, "MEAN_ANOMALY": 148.3442, "EPHEMERIS_TYPE": 0, "CLASSIFICATION_TYPE": "U", "NORAD_CAT_ID": 27954, "ELEMENT_SET_NO": 999, "REV_AT_EPOCH": 4463, "BSTAR": 0, "MEAN_MOTION_DOT": 1.4e-06, "MEAN_MOTION_DDOT": 0}, "tle": {"line1": "1 27954U 03044A   25340.32038613  .00000140  00000+0  00000+0 0  9991", "line2": "2 27954   0.9189  86.5540 0002065 165.8205 148.3442  1.00273824 44634"}}, "geometry": {"type": "Point", "coordinates": [144.5328840261073, 0.7851166417506936]}}, {"type": "Feature", "properties": {"norad_id": 28358, "name": "INTELSAT 10-02", "group": "intelsat", "lat": -0.03360858174569536, "lon": -66.45041047550272, "alt_km": 35781.58634661869, "timestamp": "2025-12-06T14:35:36.794884+00:00", "meta": {"OBJECT_NAME": "INTELSAT 10-02", "OBJECT_ID": "2004-022A", "EPOCH": "2025-12-06T06:08:38.706720", "MEAN_MOTION": 1.00270455, "ECCENTRICITY": 0.00011658, "INCLINATION": 0.0385, "RA_OF_ASC_NODE": 76.0026, "ARG_OF_PERICENTER": 208.4633, "MEAN_ANOMALY": 242.0055, "EPHEMERIS_TYPE": 0, "CLASSIFICATION_TYPE": "U", "NORAD_CAT_ID": 28358, "ELEMENT_SET_NO": 999, "REV_AT_EPOCH": 7862, "BSTAR": 0, "MEAN_MOTION_DOT": -3e-08, "MEAN_MOTION_DDOT": 0}, "tle": {"line1": "1 28358U 04022A   25340.25600355 -.00000003  00000+0  00000+0 0  9996", "line2": "2 28358   0.0385  76.0026 0001165 208.4633 242.0055  1.00270455 78629"}}, "geometry": {"type": "Point", "coordinates": [-66.45041047550272, -0.03360858174569536]}}, {"type": "Feature", "properties": {"norad_id": 28626, "name": "XM-3 (RHYTHM)", "group": "intelsat", "lat": 0.018205373942850857, "lon": 77.96536837954096, "alt_km": 36160.0423080278, "timestamp": "2025-12-06T14:35:36.794897+00:00", "meta": {"OBJECT_NAME": "XM-3 (RHYTHM)", "OBJECT_ID": "2005-008A", "EPOCH": "2025-12-06T07:30:17.481312", "MEAN_MOTION": 0.98954601, "ECCENTRICITY": 0.00011449, "INCLINATION": 0.1574, "RA_OF_ASC_NODE": 81.0273, "ARG_OF_PERICENTER": 260.031, "MEAN_ANOMALY": 351.6847, "EPHEMERIS_TYPE": 0, "CLASSIFICATION_TYPE": "U", "NORAD_CAT_ID": 28626, "ELEMENT_SET_NO": 999, "REV_AT_EPOCH": 4068, "BSTAR": 0, "MEAN_MOTION_DOT": -2.68e-06, "MEAN_MOTION_DDOT": 0}, "tle": {"line1": "1 28626U 05008A   25340.31270233 -.00000268  00000+0  00000+0 0  9997", "line2": "2 28626   0.1574  81.0273 0001144 260.0310 351.6847  0.98954601 40680"}}, "geometry": {"type": "Point", "coordinates": [77.96536837954096, 0.018205373942850857]}}]}